[
    {
        "CCSDS_OMM_VERS": "3.0",
        "COMMENT": "GENERATED VIA SPACE-TRACK.ORG API",
        "CREATION_DATE": "2025-05-03T17:28:03",
        "ORIGINATOR": "18 SPCS",
        "OBJECT_NAME": "NAVSTAR 67 (USA 239)",
        "OBJECT_ID": "2012-053A",
        "CENTER_NAME": "EARTH",
        "REF_FRAME": "TEME",
        "TIME_SYSTEM": "UTC",
        "MEAN_ELEMENT_THEORY": "SGP4",
        "EPOCH": "2025-05-03T11:44:43.872288",
        "MEAN_MOTION": "2.00562422",
        "ECCENTRICITY": "0.01642310",
        "INCLINATION": "53.5327",
        "RA_OF_ASC_NODE": "160.3745",
        "ARG_OF_PERICENTER": "60.2196",
        "MEAN_ANOMALY": "301.4643",
        "EPHEMERIS_TYPE": "0",
        "CLASSIFICATION_TYPE": "U",
        "NORAD_CAT_ID": "38833",
        "ELEMENT_SET_NO": "999",
        "REV_AT_EPOCH": "9122",
        "BSTAR": "0.00000000000000",
        "MEAN_MOTION_DOT": "0.00000022",
        "MEAN_MOTION_DDOT": "0.0000000000000",
        "SEMIMAJOR_AXIS": "26560.452",
        "PERIOD": "717.981",
        "APOAPSIS": "20618.522",
        "PERIAPSIS": "19746.112",
        "OBJECT_TYPE": "PAYLOAD",
        "RCS_SIZE": "LARGE",
        "COUNTRY_CODE": "US",
        "LAUNCH_DATE": "2012-10-04",
        "SITE": "AFETR",
        "DECAY_DATE": null,
        "FILE": "4717971",
        "GP_ID": "286759123",
        "TLE_LINE0": "0 NAVSTAR 67 (USA 239)",
        "TLE_LINE1": "1 38833U 12053A   25123.48939667  .00000022  00000-0  00000-0 0  9995",
        "TLE_LINE2": "2 38833  53.5327 160.3745 0164231  60.2196 301.4643  2.00562422 91227"
    }
]